OBJECT_NAME,OBJECT_ID,EPOCH,MEAN_MOTION,ECCENTRICITY,INCLINATION,RA_OF_ASC_NODE,ARG_OF_PERICENTER,MEAN_ANOMALY,EPHEMERIS_TYPE,CLASSIFICATION_TYPE,NORAD_CAT_ID,ELEMENT_SET_NO,REV_AT_EPOCH,BSTAR,MEAN_MOTION_DOT,MEAN_MOTION_DDOT
GALAXY 3C (G-3C),2002-030A,2026-06-07T21:31:55.114752,1.00271569,.0001815,3.7060,78.1005,30.4754,15.8501,0,U,27445,999,4640,0,-.138E-5,0
INTELSAT 906 (IS-906),2002-041A,2026-06-07T19:57:21.657888,1.00271140,.000471,5.7801,73.0349,357.2645,189.4030,0,U,27513,999,8693,0,.28E-6,0
NIMIQ 2,2002-062A,2026-06-07T14:59:08.274912,1.00271991,.0005753,9.4235,57.0007,16.4296,298.1865,0,U,27632,999,4408,0,-.57E-6,0
USA 167,2003-008A,2026-06-06T08:19:58.422144,1.00274349,.00038662,10.9394,43.5041,316.3907,258.1291,0,U,27691,999,666,0,.13E-6,0
USA 169 (MILSTAR-2 4),2003-012A,2026-06-07T22:42:12.892320,1.00270662,.0101032,12.3351,29.9148,8.8485,350.2632,0,U,27711,999,3285,0,-.22E-5,0
ASIASAT 4,2003-014A,2026-06-07T15:09:03.260736,1.00272735,.0002894,4.6810,75.8642,3.2591,191.7105,0,U,27718,999,4520,0,-.207E-5,0
HELLAS-SAT 2,2003-020A,2026-06-08T01:53:38.529024,1.00271511,.0003504,7.3316,67.9930,8.1981,198.6843,0,U,27811,999,4275,0,-.7E-6,0
THURAYA-2,2003-026A,2026-06-07T06:45:38.904192,1.00272850,.0003149,8.8260,32.0226,4.4303,4.6399,0,U,27825,999,8425,0,.136E-5,0
OPTUS C1,2003-028B,2026-06-07T14:10:01.151904,1.00270180,.0005685,6.8649,69.5252,2.8502,191.8246,0,U,27831,999,5296,0,-.138E-5,0
USA 170,2003-040A,2026-06-08T00:09:13.018752,1.00277446,.0002142,10.4801,48.0339,37.3598,197.6172,0,U,27875,999,3290,0,.138E-5,0
GALAXY 13 (HORIZONS-1),2003-044A,2026-06-08T00:41:30.852384,1.00273107,.0002092,1.3966,83.9694,348.1964,44.6224,0,U,27954,999,4648,0,.148E-5,0
YAMAL 202,2003-053A,2026-06-08T02:10:41.206080,1.00272981,.0003381,6.3213,71.0472,351.8536,29.8486,0,U,28089,999,8261,0,-.65E-6,0
UFO 11 (USA 174),2003-057A,2026-06-07T17:12:28.730016,1.00274070,.0002515,8.9338,33.8781,42.0982,153.8097,0,U,28117,999,8235,0,-.93E-6,0
USA 176 (DSP 22),2004-004A,2026-06-07T13:10:44.216832,1.00408728,.0001096,12.0487,26.1398,303.5056,72.0895,0,U,28158,999,3284,0,-.285E-5,0
ABS-4 (MOBISAT-1),2004-007A,2026-06-07T19:57:21.657888,1.00271182,.0005144,6.0192,72.1200,2.3770,182.0229,0,U,28184,999,5224,0,.54E-6,0
INTELSAT 10-02,2004-022A,2026-06-07T21:58:40.430208,1.00271594,.0000447,0.0048,329.6678,189.7889,65.5178,0,U,28358,999,8046,0,.4E-7,0
ANIK F2,2004-027A,2026-06-08T02:35:16.867968,1.00271848,.0004333,3.2626,79.5679,2.5919,102.0365,0,U,28378,999,4117,0,-.34E-6,0
AMC-15,2004-041A,2026-06-08T02:37:01.701408,1.00272576,.0002291,0.0321,301.3721,140.1828,109.1621,0,U,28446,999,7921,0,-.73E-6,0
NSS-10,2005-003A,2026-06-08T03:23:38.662080,1.00271696,.0002985,6.4260,70.5628,6.2326,193.2065,0,U,28526,999,5306,0,-.237E-5,0
INMARSAT 4-F1,2005-009A,2026-06-07T19:24:26.464032,1.00272574,.0002755,5.1547,42.7373,36.3105,286.3956,0,U,28628,999,7757,0,.46E-6,0
DIRECTV 8,2005-019A,2026-06-08T02:33:02.083104,1.00271496,.0002963,0.0040,88.1577,352.8200,94.7356,0,U,28659,999,7698,0,.17E-6,0
GALAXY 28 (G-28),2005-022A,2026-06-08T03:15:38.481120,1.00272650,.0002828,3.2763,79.0408,353.0464,206.2458,0,U,28702,999,5188,0,-.185E-5,0
THAICOM 4,2005-028A,2026-06-08T01:58:04.914048,1.00270515,.0001927,0.2208,86.0429,349.1589,330.3050,0,U,28786,999,5215,0,-.347E-5,0
ANIK F1R,2005-036A,2026-06-07T23:03:12.649248,1.00272630,.0004326,4.2882,76.6939,4.1598,54.0321,0,U,28868,999,4636,0,-.6E-6,0
SYRACUSE 3A,2005-041B,2026-06-08T00:19:42.886848,1.00270936,.0003108,4.6203,75.9491,339.0390,252.9841,0,U,28885,999,7565,0,.144E-5,0
INMARSAT 4-F2,2005-044A,2026-06-08T00:22:17.733792,1.00271495,.0003052,5.0824,43.7089,32.7373,329.0274,0,U,28899,999,7543,0,-.247E-5,0
METEOSAT-9 (MSG-2),2005-049B,2026-06-07T23:23:21.475104,1.00268603,.0001749,9.3397,54.2567,351.8629,246.7838,0,U,28912,999,690,0,.137E-5,0
EUTELSAT 174A,2005-052A,2026-06-07T21:05:57.746112,1.00269756,.000641,4.1950,76.6412,0.8242,309.2942,0,U,28924,999,5223,0,.24E-6,0
ECHOSTAR 10,2006-003A,2026-06-08T02:35:31.845408,1.00271413,.0002072,0.0171,356.6201,48.2141,140.3788,0,U,28935,999,7437,0,-.4E-6,0
SPAINSAT,2006-007A,2026-06-07T08:57:49.536000,1.00272813,.0004948,0.5367,86.7126,348.4119,284.9377,0,U,28945,999,7412,0,-.202E-5,0
JCSAT-5A,2006-010A,2026-06-08T00:19:18.020928,1.00270449,.0002124,1.0847,84.3285,11.0728,297.8794,0,U,29045,999,7367,0,-.312E-5,0
ASTRA 1KR,2006-012A,2026-06-08T03:12:25.860960,1.00272401,.0003531,0.4494,83.2061,352.4389,247.9893,0,U,29055,999,4560,0,.135E-5,0
